{"spkid": "20162510", "covariance": {"labels": ["e", "q", "tp", "node", "peri", "i"], "data": [["1.614356753919098E-18", "-1.247231166458468E-18", "1.445554133934444E-15", "-1.445885100718099E-16", "5.195616816348903E-16", "2.057084286102367E-16"], ["-1.247231166458468E-18", "1.460655680454552E-18", "-8.387755154616837E-16", "8.463659072211232E-17", "-5.356689292536605E-16", "-1.276638740811093E-16"], ["1.445554133934444E-15", "-8.387755154616837E-16", "1.635953837673445E-12", "-1.775106028741301E-13", "5.476653718711308E-13", "2.404678508872782E-13"], ["-1.445885100718099E-16", "8.463659072211232E-17", "-1.775106028741301E-13", "8.935861604415959E-14", "-1.252314976901314E-13", "-5.979374607224967E-14"], ["5.195616816348903E-16", "-5.356689292536605E-16", "5.476653718711308E-13", "-1.252314976901314E-13", "3.924770358226874E-13", "1.111403957219426E-13"], ["2.057084286102367E-16", "-1.276638740811093E-16", "2.404678508872782E-13", "-5.979374607224967E-14", "1.111403957219426E-13", "8.066973242730221E-14"]], "elements": [{"name": "e", "sigma": 1.27057339572301e-09, "title": "eccentricity", "value": ".3022069228816749", "units": null, "label": "e"}, {"label": "q", "name": "q", "sigma": 1.20857588940643e-09, "units": "au", "value": ".9602792315162775", "title": "perihelion distance"}, {"label": "tp", "title": "time of perihelion passage", "value": "2458092.174417019375", "units": "TDB", "name": "tp", "sigma": 1.27904411091778e-06}, {"label": "node", "units": "deg", "title": "longitude of the ascending node", "value": "344.3558916681117", "name": "om", "sigma": 2.98929115417283e-07}, {"value": "220.6960138768708", "title": "argument of perihelion", "units": "deg", "sigma": 6.26479876630277e-07, "name": "w", "label": "peri"}, {"sigma": 2.84024175779637e-07, "name": "i", "units": "deg", "title": "inclination", "value": "38.14981238250815", "label": "i"}], "epoch": "2458315.5"}, "elements": [{"title": "eccentricity", "value": ".3023013675435532", "units": null, "name": "e", "sigma": "1.2646E-9", "label": "e"}, {"label": "a", "units": "au", "title": "semi-major axis", "value": "1.376205540425194", "name": "a", "sigma": "1.4754E-9"}, {"label": "q", "units": "au", "value": ".9601767235336429", "title": "perihelion distance", "name": "q", "sigma": "1.2096E-9"}, {"label": "i", "name": "i", "sigma": "2.8403E-7", "units": "deg", "value": "38.1457166923215", "title": "inclination; angle with respect to x-y ecliptic plane"}, {"name": "om", "sigma": "2.9885E-7", "units": "deg", "value": "344.3211111573963", "title": "longitude of the ascending node", "label": "node"}, {"label": "peri", "title": "argument of perihelion", "value": "220.7240455418754", "units": "deg", "sigma": "6.2598E-7", "name": "w"}, {"label": "M", "name": "ma", "sigma": "3.7697E-6", "units": "deg", "title": "mean anomaly", "value": "97.73196351146329"}, {"value": "2461040.412470276331", "title": "time of perihelion passage", "units": "TDB", "sigma": "5.9189E-6", "name": "tp", "label": "tp"}, {"name": "per", "sigma": "9.4826E-7", "units": "d", "value": "589.6894795709403", "title": "sidereal orbital period", "label": "period"}, {"sigma": "9.8171E-10", "name": "n", "units": "deg/d", "value": ".6104907963797099", "title": "mean motion", "label": "n"}, {"units": "au", "value": "1.792234357316745", "title": "aphelion distance", "name": "ad", "sigma": "1.9214E-9", "label": "Q"}], "epoch": "2461200.5"}